OBJECT_NAME,OBJECT_ID,EPOCH,MEAN_MOTION,ECCENTRICITY,INCLINATION,RA_OF_ASC_NODE,ARG_OF_PERICENTER,MEAN_ANOMALY,EPHEMERIS_TYPE,CLASSIFICATION_TYPE,NORAD_CAT_ID,ELEMENT_SET_NO,REV_AT_EPOCH,BSTAR,MEAN_MOTION_DOT,MEAN_MOTION_DDOT
ALOS-2,2014-029A,2026-06-08T13:11:42.167040,14.79472067,.00016718,97.9210,256.8376,90.6305,269.5098,0,U,39766,999,65030,.20114351E-3,.1451E-4,0
KAZEOSAT 2,2014-033A,2026-06-09T06:45:21.578400,14.85459565,.00086765,97.5417,0.3112,356.5798,3.5357,0,U,40010,999,64778,.20097118E-4,.123E-5,0
HODOYOSHI-4,2014-033B,2026-06-09T07:14:03.343776,14.88108308,.00231823,97.5460,345.5050,335.6399,24.3721,0,U,40011,999,64763,.45783415E-4,.371E-5,0
DEIMOS-2,2014-033D,2026-06-09T06:41:00.602880,14.93708127,.00020485,97.5840,35.0449,59.1237,301.0184,0,U,40013,999,63654,.20272556E-3,.2091E-4,0
HODOYOSHI-3,2014-033F,2026-06-09T00:48:54.897408,14.85371568,.00334063,97.6412,323.4033,23.9696,336.3066,0,U,40015,999,64641,.11937586E-3,.984E-5,0
SPOT 7,2014-034A,2026-06-09T05:41:02.372928,14.60952057,.0001175,98.0627,222.9331,84.8763,275.2572,0,U,40053,999,63597,.11120177E-3,.499E-5,0
SKYSAT-B,2014-037D,2026-06-09T02:57:13.965984,14.88006530,.00045236,98.3834,118.6287,315.1194,44.9654,0,U,40072,999,64476,.13893263E-3,.1214E-4,0
WORLDVIEW-3 (WV-3),2014-048A,2026-06-09T06:48:43.267968,14.85008850,.00015897,97.8566,235.2257,37.9825,322.1501,0,U,40115,999,64073,.90660056E-4,.72E-5,0
GAOFEN-2,2014-049A,2026-06-09T06:30:06.884064,14.80890854,.00058958,98.0107,224.4855,258.5732,101.4818,0,U,40118,999,63806,.10296728E-3,.742E-5,0
YAOGAN-21,2014-053A,2026-06-09T07:05:28.233888,15.26254952,.00098042,97.1482,200.8702,116.0277,244.1972,0,U,40143,999,65375,.19339209E-3,.4948E-4,0
YAOGAN-22,2014-063A,2026-06-09T06:37:59.076480,13.15531001,.00061614,100.7714,311.4186,203.2708,156.8125,0,U,40275,999,55877,.79583181E-4,-.17E-6,0
ASNARO,2014-070A,2026-06-09T06:09:01.011744,15.19318504,.00048238,97.3447,236.5856,189.9880,170.1260,0,U,40298,999,64280,.35762295E-3,.749E-4,0
YAOGAN-24,2014-072A,2026-06-09T06:53:36.062016,14.76214066,.00126623,98.1479,297.5591,291.8302,68.1560,0,U,40310,999,62255,.1430985E-3,.938E-5,0
CBERS 4,2014-079A,2026-06-09T07:12:25.147584,14.35506681,.00019965,98.3531,217.3790,71.4957,288.6446,0,U,40336,999,60282,-.4710311E-5,-.56E-6,0
YAOGAN-26,2014-088A,2026-06-09T05:50:05.968032,15.47033423,.00066377,97.0646,160.6406,85.0681,275.1327,0,U,40362,999,63647,.47541226E-3,.24E-3,0
SMAP,2015-003A,2026-06-09T06:50:21.576480,14.63359581,.00012748,98.1276,167.4915,93.3644,266.7704,0,U,40376,999,60646,.84504115E-4,.39E-5,0
KOMPSAT-3A,2015-014A,2026-06-09T06:08:58.861248,15.53630106,.00558609,97.6886,151.0406,203.2945,156.5776,0,U,40536,999,62058,.3159375E-3,.21483E-3,0
SENTINEL-2A,2015-028A,2026-06-09T07:30:07.148736,14.30821985,.00010736,98.5678,235.2757,87.6308,272.4998,0,U,40697,999,57260,.86202453E-4,.182E-5,0
GAOFEN-8,2015-030A,2026-06-09T06:07:17.737824,15.45658089,.00081377,97.6917,353.1504,215.4903,144.5805,0,U,40701,999,61022,.28883798E-3,.13853E-3,0
CARBONITE 1 (CBNT-1),2015-032D,2026-06-09T06:59:29.844096,14.83561155,.00137267,97.6510,338.6891,326.0852,33.9483,0,U,40718,999,58817,.96001989E-4,.741E-5,0
YAOGAN-27,2015-040A,2026-06-09T06:35:11.191776,13.16068303,.00074914,100.1154,147.0008,230.3809,129.6644,0,U,40878,999,51662,-.48891682E-3,-.228E-5,0
GAOFEN-9 01,2015-047A,2026-06-09T07:15:43.699104,14.82868531,.0027805,97.6278,196.3554,162.9413,197.2743,0,U,40894,999,57902,.11284919E-3,.869E-5,0
YAOGAN-28,2015-064A,2026-06-09T06:20:53.465280,15.27317073,.00099033,97.3062,298.6891,211.9102,148.1539,0,U,41026,999,58947,.25267664E-3,.6697E-4,0
YAOGAN-29,2015-069A,2026-06-09T06:49:00.283584,14.83077115,.00028776,98.0033,188.9045,66.2455,293.9060,0,U,41038,999,56945,.3074846E-5,-.29E-6,0
KENT RIDGE 1,2015-077B,2026-06-09T02:36:21.593664,15.23082353,.00082474,14.9807,326.0677,124.4283,235.6820,0,U,41167,999,57986,.11853903E-3,.3643E-4,0
GAOFEN-4,2015-083A,2026-06-08T14:20:42.251136,1.00273550,.00041656,0.3341,83.8441,111.8448,22.1741,0,U,41194,999,3844,0,-.319E-5,0
JASON-3,2016-002A,2026-06-09T07:31:10.464384,12.87627818,.00085874,66.0392,142.3891,273.0790,86.9246,0,U,41240,999,48623,.92374577E-4,-.39E-6,0
SENTINEL-3A,2016-011A,2026-06-09T07:00:19.251072,14.26737783,.00013443,98.6249,227.7886,104.5178,255.6152,0,U,41335,999,53693,.49997498E-4,.77E-6,0
ZIYUAN 3-02 (ZY 3-02),2016-033A,2026-06-09T07:08:16.135008,15.21404666,.00115491,97.3835,236.2225,321.2027,38.8379,0,U,41556,999,55678,.21481686E-3,.4759E-4,0
CARTOSAT-2C,2016-040A,2026-06-09T05:20:45.963744,15.19255908,.00099138,97.4487,220.3098,156.1339,204.0357,0,U,41599,999,55250,.19896316E-3,.413E-4,0
