ALOS-2                  
1 39766U 14029A   26159.54979360  .00001451  00000+0  20114-3 0  9994
2 39766  97.9210 256.8376 0001671  90.6305 269.5098 14.79472067650306
KAZEOSAT 2              
1 40010U 14033A   26160.28149975  .00000123  00000+0  20097-4 0  9993
2 40010  97.5417   0.3112 0008676 356.5798   3.5357 14.85459565647784
HODOYOSHI-4             
1 40011U 14033B   26160.30142759  .00000371  00000+0  45783-4 0  9994
2 40011  97.5460 345.5050 0023182 335.6399  24.3721 14.88108308647631
DEIMOS-2                
1 40013U 14033D   26160.27847920  .00002091  00000+0  20273-3 0  9991
2 40013  97.5840  35.0449 0002048  59.1237 301.0184 14.93708127636542
HODOYOSHI-3             
1 40015U 14033F   26160.03396872  .00000984  00000+0  11938-3 0  9999
2 40015  97.6412 323.4033 0033406  23.9696 336.3066 14.85371568646416
SPOT 7                  
1 40053U 14034A   26160.23683302  .00000499  00000+0  11120-3 0  9995
2 40053  98.0627 222.9331 0001175  84.8763 275.2572 14.60952057635977
SKYSAT-B                
1 40072U 14037D   26160.12307831  .00001214  00000+0  13893-3 0  9992
2 40072  98.3834 118.6287 0004523 315.1194  44.9654 14.88006530644765
WORLDVIEW-3 (WV-3)      
1 40115U 14048A   26160.28383412  .00000720  00000+0  90660-4 0  9997
2 40115  97.8566 235.2257 0001589  37.9825 322.1501 14.85008850640730
GAOFEN-2                
1 40118U 14049A   26160.27091301  .00000742  00000+0  10297-3 0  9994
2 40118  98.0107 224.4855 0005895 258.5732 101.4818 14.80890854638063
YAOGAN-21               
1 40143U 14053A   26160.29546567  .00004948  00000+0  19339-3 0  9996
2 40143  97.1482 200.8702 0009804 116.0277 244.1972 15.26254952653755
YAOGAN-22               
1 40275U 14063A   26160.27637820 -.00000017  00000+0  79583-4 0  9996
2 40275 100.7714 311.4186 0006161 203.2708 156.8125 13.15531001558770
ASNARO                  
1 40298U 14070A   26160.25626171  .00007490  00000+0  35762-3 0  9995
2 40298  97.3447 236.5856 0004823 189.9880 170.1260 15.19318504642808
YAOGAN-24               
1 40310U 14072A   26160.28722294  .00000938  00000+0  14310-3 0  9994
2 40310  98.1479 297.5591 0012662 291.8302  68.1560 14.76214066622551
CBERS 4                 
1 40336U 14079A   26160.30029106 -.00000056  00000+0 -47103-5 0  9995
2 40336  98.3531 217.3790 0001996  71.4957 288.6446 14.35506681602829
YAOGAN-26               
1 40362U 14088A   26160.24312463  .00024000  00000+0  47541-3 0  9995
2 40362  97.0646 160.6406 0006637  85.0681 275.1327 15.47033423636477
SMAP                    
1 40376U 15003A   26160.28497195  .00000390  00000+0  84504-4 0  9995
2 40376  98.1276 167.4915 0001274  93.3644 266.7704 14.63359581606460
KOMPSAT-3A              
1 40536U 15014A   26160.25623682  .00021483  00000+0  31594-3 0  9990
2 40536  97.6886 151.0406 0055860 203.2945 156.5776 15.53630106620588
SENTINEL-2A             
1 40697U 15028A   26160.31258274  .00000182  00000+0  86202-4 0  9991
2 40697  98.5678 235.2757 0001073  87.6308 272.4998 14.30821985572607
GAOFEN-8                
1 40701U 15030A   26160.25506641  .00013853  00000+0  28884-3 0  9997
2 40701  97.6917 353.1504 0008137 215.4903 144.5805 15.45658089610226
CARBONITE 1 (CBNT-1)    
1 40718U 15032D   26160.29131764  .00000741  00000+0  96002-4 0  9991
2 40718  97.6510 338.6891 0013726 326.0852  33.9483 14.83561155588171
YAOGAN-27               
1 40878U 15040A   26160.27443509 -.00000228  00000+0 -48892-3 0  9993
2 40878 100.1154 147.0008 0007491 230.3809 129.6644 13.16068303516620
GAOFEN-9 01             
1 40894U 15047A   26160.30258911  .00000869  00000+0  11285-3 0  9998
2 40894  97.6278 196.3554 0027805 162.9413 197.2743 14.82868531579029
YAOGAN-28               
1 41026U 15064A   26160.26450770  .00006697  00000+0  25268-3 0  9998
2 41026  97.3062 298.6891 0009903 211.9102 148.1539 15.27317073589472
YAOGAN-29               
1 41038U 15069A   26160.28403106 -.00000029  00000+0  30748-5 0  9994
2 41038  98.0033 188.9045 0002877  66.2455 293.9060 14.83077115569453
KENT RIDGE 1            
1 41167U 15077B   26160.10858326  .00003643  00000+0  11854-3 0  9994
2 41167  14.9807 326.0677 0008247 124.4283 235.6820 15.23082353579869
GAOFEN-4                
1 41194U 15083A   26159.59771124 -.00000319  00000+0  00000+0 0  9997
2 41194   0.3341  83.8441 0004165 111.8448  22.1741  1.00273550 38442
JASON-3                 
1 41240U 16002A   26160.31331556 -.00000039  00000+0  92375-4 0  9994
2 41240  66.0392 142.3891 0008587 273.0790  86.9246 12.87627818486231
SENTINEL-3A             
1 41335U 16011A   26160.29188948  .00000077  00000+0  49997-4 0  9994
2 41335  98.6249 227.7886 0001344 104.5178 255.6152 14.26737783536934
ZIYUAN 3-02 (ZY 3-02)   
1 41556U 16033A   26160.29740897  .00004759  00000+0  21482-3 0  9999
2 41556  97.3835 236.2225 0011549 321.2027  38.8379 15.21404666556781
CARTOSAT-2C             
1 41599U 16040A   26160.22275421  .00004130  00000+0  19896-3 0  9992
2 41599  97.4487 220.3098 0009913 156.1339 204.0357 15.19255908552506
